IRIDIUM 112             
1 41925U 17003J   25239.47785005  .00000066  00000+0  16425-4 0  9992
2 41925  86.3981 210.9736 0002220  84.9473 275.1977 14.34218103451170
IRIDIUM 111             
1 41926U 17003K   25239.46516316  .00000155  00000+0  48312-4 0  9998
2 41926  86.3983 211.0429 0002292  90.1231 270.0227 14.34217964451158
IRIDIUM 113             
1 42803U 17039A   25239.58466592  .00000083  00000+0  22533-4 0  9992
2 42803  86.3915  84.9076 0001951  85.1200 275.0218 14.34217743429104
IRIDIUM 123             
1 42804U 17039B   25239.62614510 -.00000013  00000+0 -11632-4 0  9996
2 42804  86.3962 116.3841 0002051  94.9104 265.2326 14.34217380427870
IRIDIUM 120             
1 42805U 17039C   25239.57831598  .00000289  00000+0  96092-4 0  9994
2 42805  86.3908  84.7306 0002461  91.0511 269.0967 14.34217139429091
IRIDIUM 115             
1 42806U 17039D   25239.57180608  .00000248  00000+0  67656-4 0  9993
2 42806  86.4443  84.8220 0002414 105.2133 254.9335 14.43279627431915
IRIDIUM 118             
1 42807U 17039E   25239.58808844  .00000141  00000+0  43251-4 0  9991
2 42807  86.3959 116.3997 0001972  83.0757 277.0663 14.34218397427868
IRIDIUM 117             
1 42808U 17039F   25239.60712420  .00000051  00000+0  11328-4 0  9999
2 42808  86.3959 116.3522 0002058  92.1564 267.9867 14.34212112427892
